{"type": "FeatureCollection", "features": [ {"type": "Feature", "properties": {"norad_id": 42987, "name": "SKYSAT-C11", "group": "resource", "lat": 25.327442581711846, "lon": -47.0338988561288, "alt_km": 422.38596688768484, "timestamp": "2025-12-17T19:34:07.702318+00:00", "meta": {"OBJECT_NAME": "SKYSAT-C11", "OBJECT_ID": "2017-068A", "EPOCH": "2025-12-17T08:02:30.918912", "MEAN_MOTION": 15.47641035, "ECCENTRICITY": 0.00012128, "INCLINATION": 97.4136, "RA_OF_ASC_NODE": 128.9407, "ARG_OF_PERICENTER": 105.5123, "MEAN_ANOMALY": 254.6262, "EPHEMERIS_TYPE": 0, "CLASSIFICATION_TYPE": "U", "NORAD_CAT_ID": 42987, "ELEMENT_SET_NO": 999, "REV_AT_EPOCH": 45502, "BSTAR": 0.00036737517, "MEAN_MOTION_DOT": 0.00018888, "MEAN_MOTION_DDOT": 0}, "tle": {"line1": "1 42987U 17068A   25351.33508008  .00018888  00000+0  36738-3 0  9997", "line2": "2 42987  97.4136 128.9407 0001212 105.5123 254.6262 15.47641035455025"}}, "geometry": {"type": "Point", "coordinates": [-47.0338988561288, 25.327442581711846]}}, {"type": "Feature", "properties": {"norad_id": 42988, "name": "SKYSAT-C10", "group": "resource", "lat": -46.47264304568508, "lon": 130.57201425673784, "alt_km": 478.86300576547364, "timestamp": "2025-12-17T19:34:07.702328+00:00", "meta": {"OBJECT_NAME": "SKYSAT-C10", "OBJECT_ID": "2017-068B", "EPOCH": "2025-12-17T07:14:03.216768", "MEAN_MOTION": 15.3216022, "ECCENTRICITY": 0.0005427, "INCLINATION": 97.4256, "RA_OF_ASC_NODE": 122.1647, "ARG_OF_PERICENTER": 91.0568, "MEAN_ANOMALY": 269.1296, "EPHEMERIS_TYPE": 0, "CLASSIFICATION_TYPE": "U", "NORAD_CAT_ID": 42988, "ELEMENT_SET_NO": 999, "REV_AT_EPOCH": 45449, "BSTAR": 0.00030532325, "MEAN_MOTION_DOT": 9.408e-05, "MEAN_MOTION_DDOT": 0}, "tle": {"line1": "1 42988U 17068B   25351.30142612  .00009408  00000+0  30532-3 0  9994", "line2": "2 42988  97.4256 122.1647 0005427  91.0568 269.1296 15.32160220454499"}}, "geometry": {"type": "Point", "coordinates": [130.57201425673784, -46.47264304568508]}}, {"type": "Feature", "properties": {"norad_id": 42989, "name": "SKYSAT-C9", "group": "resource", "lat": -53.112338266399846, "lon": -67.8894162702587, "alt_km": 471.3732383421766, "timestamp": "2025-12-17T19:34:07.702338+00:00", "meta": {"OBJECT_NAME": "SKYSAT-C9", "OBJECT_ID": "2017-068C", "EPOCH": "2025-12-17T07:36:42.694848", "MEAN_MOTION": 15.36166959, "ECCENTRICITY": 0.00106058, "INCLINATION": 97.4187, "RA_OF_ASC_NODE": 121.607, "ARG_OF_PERICENTER": 73.0868, "MEAN_ANOMALY": 287.1538, "EPHEMERIS_TYPE": 0, "CLASSIFICATION_TYPE": "U", "NORAD_CAT_ID": 42989, "ELEMENT_SET_NO": 999, "REV_AT_EPOCH": 45478, "BSTAR": 0.0003240205, "MEAN_MOTION_DOT": 0.00011361, "MEAN_MOTION_DDOT": 0}, "tle": {"line1": "1 42989U 17068C   25351.31716082  .00011361  00000+0  32402-3 0  9993", "line2": "2 42989  97.4187 121.6070 0010605  73.0868 287.1538 15.36166959454784"}}, "geometry": {"type": "Point", "coordinates": [-67.8894162702587, -53.112338266399846]}}, {"type": "Feature", "properties": {"norad_id": 42990, "name": "SKYSAT-C8", "group": "resource", "lat": 32.38875463538754, "lon": -53.41543373965169, "alt_km": 465.81787244365114, "timestamp": "2025-12-17T19:34:07.702348+00:00", "meta": {"OBJECT_NAME": "SKYSAT-C8", "OBJECT_ID": "2017-068D", "EPOCH": "2025-12-17T07:57:46.624896", "MEAN_MOTION": 15.33021868, "ECCENTRICITY": 0.00012634, "INCLINATION": 97.4278, "RA_OF_ASC_NODE": 121.3518, "ARG_OF_PERICENTER": 326.0348, "MEAN_ANOMALY": 34.0813, "EPHEMERIS_TYPE": 0, "CLASSIFICATION_TYPE": "U", "NORAD_CAT_ID": 42990, "ELEMENT_SET_NO": 999, "REV_AT_EPOCH": 45441, "BSTAR": 0.00030707047, "MEAN_MOTION_DOT": 9.718e-05, "MEAN_MOTION_DDOT": 0}, "tle": {"line1": "1 42990U 17068D   25351.33178964  .00009718  00000+0  30707-3 0  9997", "line2": "2 42990  97.4278 121.3518 0001263 326.0348  34.0813 15.33021868454416"}}, "geometry": {"type": "Point", "coordinates": [-53.41543373965169, 32.38875463538754]}}, {"type": "Feature", "properties": {"norad_id": 42991, "name": "SKYSAT-C7", "group": "resource", "lat": -8.371031086438409, "lon": 123.97446584644213, "alt_km": 469.3833246077784, "timestamp": "2025-12-17T19:34:07.702359+00:00", "meta": {"OBJECT_NAME": "SKYSAT-C7", "OBJECT_ID": "2017-068E", "EPOCH": "2025-12-17T07:04:05.867040", "MEAN_MOTION": 15.32423091, "ECCENTRICITY": 0.00073746, "INCLINATION": 97.4285, "RA_OF_ASC_NODE": 122.3517, "ARG_OF_PERICENTER": 42.7677, "MEAN_ANOMALY": 317.4138, "EPHEMERIS_TYPE": 0, "CLASSIFICATION_TYPE": "U", "NORAD_CAT_ID": 42991, "ELEMENT_SET_NO": 999, "REV_AT_EPOCH": 45447, "BSTAR": 0.00029922936, "MEAN_MOTION_DOT": 9.298e-05, "MEAN_MOTION_DDOT": 0}, "tle": {"line1": "1 42991U 17068E   25351.29451235  .00009298  00000+0  29923-3 0  9999", "line2": "2 42991  97.4285 122.3517 0007374  42.7677 317.4138 15.32423091454478"}}, "geometry": {"type": "Point", "coordinates": [123.97446584644213, -8.371031086438409]}}, {"type": "Feature", "properties": {"norad_id": 42992, "name": "SKYSAT-C6", "group": "resource", "lat": 81.82813894675364, "lon": 8.678428438037555, "alt_km": 460.45690912842383, "timestamp": "2025-12-17T19:34:07.702370+00:00", "meta": {"OBJECT_NAME": "SKYSAT-C6", "OBJECT_ID": "2017-068F", "EPOCH": "2025-12-17T08:11:12.621984", "MEAN_MOTION": 15.3158374, "ECCENTRICITY": 0.00050921, "INCLINATION": 97.4319, "RA_OF_ASC_NODE": 122.8333, "ARG_OF_PERICENTER": 69.9436, "MEAN_ANOMALY": 290.2353, "EPHEMERIS_TYPE": 0, "CLASSIFICATION_TYPE": "U", "NORAD_CAT_ID": 42992, "ELEMENT_SET_NO": 999, "REV_AT_EPOCH": 45446, "BSTAR": 0.00029339783, "MEAN_MOTION_DOT": 8.874e-05, "MEAN_MOTION_DDOT": 0}, "tle": {"line1": "1 42992U 17068F   25351.34111831  .00008874  00000+0  29340-3 0  9993", "line2": "2 42992  97.4319 122.8333 0005092  69.9436 290.2353 15.31583740454460"}}, "geometry": {"type": "Point", "coordinates": [8.678428438037555, 81.82813894675364]}}, {"type": "Feature", "properties": {"norad_id": 43111, "name": "CARTOSAT-2F", "group": "resource", "lat": -23.45491567481673, "lon": 52.61822445163016, "alt_km": 514.2772790660329, "timestamp": "2025-12-17T19:34:07.702380+00:00", "meta": {"OBJECT_NAME": "CARTOSAT-2F", "OBJECT_ID": "2018-004A", "EPOCH": "2025-12-17T08:36:29.412864", "MEAN_MOTION": 15.19324192, "ECCENTRICITY": 0.00012905, "INCLINATION": 97.4319, "RA_OF_ASC_NODE": 48.9221, "ARG_OF_PERICENTER": 140.4105, "MEAN_ANOMALY": 219.7224, "EPHEMERIS_TYPE": 0, "CLASSIFICATION_TYPE": "U", "NORAD_CAT_ID": 43111, "ELEMENT_SET_NO": 999, "REV_AT_EPOCH": 43972, "BSTAR": 0.00022665679, "MEAN_MOTION_DOT": 4.72e-05, "MEAN_MOTION_DDOT": 0}, "tle": {"line1": "1 43111U 18004A   25351.35867376  .00004720  00000+0  22666-3 0  9991", "line2": "2 43111  97.4319  48.9221 0001290 140.4105 219.7224 15.19324192439727"}}, "geometry": {"type": "Point", "coordinates": [52.61822445163016, -23.45491567481673]}}, {"type": "Feature", "properties": {"norad_id": 43259, "name": "GAOFEN-1 02", "group": "resource", "lat": 40.14844561117988, "lon": 42.72382991608362, "alt_km": 638.826050222965, "timestamp": "2025-12-17T19:34:07.702391+00:00", "meta": {"OBJECT_NAME": "GAOFEN-1 02", "OBJECT_ID": "2018-031A", "EPOCH": "2025-12-17T07:59:58.515360", "MEAN_MOTION": 14.76425695, "ECCENTRICITY": 0.00020167, "INCLINATION": 98.0807, "RA_OF_ASC_NODE": 49.1246, "ARG_OF_PERICENTER": 200.4781, "MEAN_ANOMALY": 159.6348, "EPHEMERIS_TYPE": 0, "CLASSIFICATION_TYPE": "U", "NORAD_CAT_ID": 43259, "ELEMENT_SET_NO": 999, "REV_AT_EPOCH": 41586, "BSTAR": 0.00013616228, "MEAN_MOTION_DOT": 8.95e-06, "MEAN_MOTION_DDOT": 0}, "tle": {"line1": "1 43259U 18031A   25351.33331615  .00000895  00000+0  13616-3 0  9998", "line2": "2 43259  98.0807  49.1246 0002016 200.4781 159.6348 14.76425695415863"}}, "geometry": {"type": "Point", "coordinates": [42.72382991608362, 40.14844561117988]}}, {"type": "Feature", "properties": {"norad_id": 43260, "name": "GAOFEN-1 03", "group": "resource", "lat": 23.360197863297007, "lon": -126.99966891839541, "alt_km": 641.0849794154337, "timestamp": "2025-12-17T19:34:07.702403+00:00", "meta": {"OBJECT_NAME": "GAOFEN-1 03", "OBJECT_ID": "2018-031B", "EPOCH": "2025-12-17T07:28:39.210816", "MEAN_MOTION": 14.7644622, "ECCENTRICITY": 0.00017749, "INCLINATION": 98.0793, "RA_OF_ASC_NODE": 48.979, "ARG_OF_PERICENTER": 299.1313, "MEAN_ANOMALY": 60.9719, "EPHEMERIS_TYPE": 0, "CLASSIFICATION_TYPE": "U", "NORAD_CAT_ID": 43260, "ELEMENT_SET_NO": 999, "REV_AT_EPOCH": 41585, "BSTAR": 0.00011839322, "MEAN_MOTION_DOT": 7.72e-06, "MEAN_MOTION_DDOT": 0}, "tle": {"line1": "1 43260U 18031B   25351.31156494  .00000772  00000+0  11839-3 0  9997", "line2": "2 43260  98.0793  48.9790 0001774 299.1313  60.9719 14.76446220415858"}}, "geometry": {"type": "Point", "coordinates": [-126.99966891839541, 23.360197863297007]}}, {"type": "Feature", "properties": {"norad_id": 43262, "name": "GAOFEN-1 04", "group": "resource", "lat": -72.22658393214397, "lon": 75.96239216788575, "alt_km": 648.2306106046299, "timestamp": "2025-12-17T19:34:07.702413+00:00", "meta": {"OBJECT_NAME": "GAOFEN-1 04", "OBJECT_ID": "2018-031D", "EPOCH": "2025-12-17T08:31:07.069152", "MEAN_MOTION": 14.7646073, "ECCENTRICITY": 8.853e-05, "INCLINATION": 98.0808, "RA_OF_ASC_NODE": 49.1925, "ARG_OF_PERICENTER": 59.5287, "MEAN_ANOMALY": 300.601, "EPHEMERIS_TYPE": 0, "CLASSIFICATION_TYPE": "U", "NORAD_CAT_ID": 43262, "ELEMENT_SET_NO": 999, "REV_AT_EPOCH": 41585, "BSTAR": 0.00013125041, "MEAN_MOTION_DOT": 8.61e-06, "MEAN_MOTION_DDOT": 0}, "tle": {"line1": "1 43262U 18031D   25351.35494293  .00000861  00000+0  13125-3 0  9994", "line2": "2 43262  98.0808  49.1925 0000885  59.5287 300.6010 14.76460730415850"}}, "geometry": {"type": "Point", "coordinates": [75.96239216788575, -72.22658393214397]}}]}